start=new Date('2022-06-06T00:00:00.000Z').valueOf();
sats=[{"OBJECT_ID":"2020-025BF","PERIAPSIS":"545.968","MEAN_ANOMALY":"298.0701","SEMIMAJOR_AXIS":"6925.339","MEAN_MOTION_DOT":"0.00000698","EPHEMERIS_TYPE":"0","NORAD_CAT_ID":"45584","BSTAR":"0.00006573400000","LAUNCH_DATE":"2020-04-22","REF_FRAME":"TEME","PERIOD":"95.592","MEAN_MOTION_DDOT":"0.0000000000000","REV_AT_EPOCH":"11859","FILE":"3482995","RCS_SIZE":"LARGE","INCLINATION":"53.0565","TLE_LINE2":"2 45584  53.0565 119.4334 0001785  62.0469 298.0701 15.06403020118597","MEAN_MOTION":"15.06403020","TLE_LINE1":"1 45584U 20025BF  22156.87129740  .00000698  00000-0  65734-4 0  9991","MEAN_ELEMENT_THEORY":"SGP4","DECAY_DATE":null,"COUNTRY_CODE":"US","CENTER_NAME":"EARTH","ARG_OF_PERICENTER":"62.0469","SITE":"AFETR","TIME_SYSTEM":"UTC","CLASSIFICATION_TYPE":"U","OBJECT_NAME":"STARLINK-1343","RA_OF_ASC_NODE":"119.4334","OBJECT_TYPE":"PAYLOAD","ELEMENT_SET_NO":"999","GP_ID":"205444694","ECCENTRICITY":"0.00017850","APOAPSIS":"548.440","EPOCH":"2022-06-05T20:54:40.095360"},{"APOAPSIS":"548.707","ECCENTRICITY":"0.00021810","GP_ID":"205444945","ELEMENT_SET_NO":"999","EPOCH":"2022-06-05T15:05:43.135008","ARG_OF_PERICENTER":"60.1360","CENTER_NAME":"EARTH","COUNTRY_CODE":"US","OBJECT_NAME":"STARLINK-1347","RA_OF_ASC_NODE":"120.5395","OBJECT_TYPE":"PAYLOAD","CLASSIFICATION_TYPE":"U","TIME_SYSTEM":"UTC","SITE":"AFETR","FILE":"3482995","RCS_SIZE":"LARGE","REV_AT_EPOCH":"11854","MEAN_MOTION_DDOT":"0.0000000000000","PERIOD":"95.592","LAUNCH_DATE":"2020-04-22","REF_FRAME":"TEME","DECAY_DATE":null,"MEAN_MOTION":"15.06405463","TLE_LINE1":"1 45586U 20025BH  22156.62897147  .00001578  00000-0  12479-3 0  9994","MEAN_ELEMENT_THEORY":"SGP4","INCLINATION":"53.0560","TLE_LINE2":"2 45586  53.0560 120.5395 0002181  60.1360 299.9846 15.06405463118542","SEMIMAJOR_AXIS":"6925.332","MEAN_ANOMALY":"299.9846","PERIAPSIS":"545.686","OBJECT_ID":"2020-025BH","NORAD_CAT_ID":"45586","BSTAR":"0.00012479000000","EPHEMERIS_TYPE":"0","MEAN_MOTION_DOT":"0.00001578"},{"GP_ID":"205443693","ECCENTRICITY":"0.00020270","APOAPSIS":"548.611","ELEMENT_SET_NO":"999","EPOCH":"2022-06-05T20:45:25.797888","ARG_OF_PERICENTER":"60.7573","COUNTRY_CODE":"US","CENTER_NAME":"EARTH","CLASSIFICATION_TYPE":"U","OBJECT_NAME":"STARLINK-1349","OBJECT_TYPE":"PAYLOAD","RA_OF_ASC_NODE":"119.4665","SITE":"AFETR","TIME_SYSTEM":"UTC","REV_AT_EPOCH":"11859","MEAN_MOTION_DDOT":"0.0000000000000","FILE":"3482995","RCS_SIZE":"LARGE","LAUNCH_DATE":"2020-04-22","REF_FRAME":"TEME","PERIOD":"95.592","MEAN_MOTION":"15.06402200","TLE_LINE1":"1 45587U 20025BJ  22156.86488192 -.00000239  00000-0  28717-5 0  9995","MEAN_ELEMENT_THEORY":"SGP4","DECAY_DATE":null,"INCLINATION":"53.0551","TLE_LINE2":"2 45587  53.0551 119.4665 0002027  60.7573 299.3618 15.06402200118593","MEAN_ANOMALY":"299.3618","SEMIMAJOR_AXIS":"6925.342","OBJECT_ID":"2020-025BJ","PERIAPSIS":"545.803","EPHEMERIS_TYPE":"0","MEAN_MOTION_DOT":"-0.00000239","NORAD_CAT_ID":"45587","BSTAR":"0.00000287170000"},{"EPHEMERIS_TYPE":"0","MEAN_MOTION_DOT":"-0.00000571","BSTAR":"-0.00001940400000","NORAD_CAT_ID":"45588","MEAN_ANOMALY":"290.3967","SEMIMAJOR_AXIS":"6925.361","PERIAPSIS":"546.093","OBJECT_ID":"2020-025BK","MEAN_ELEMENT_THEORY":"SGP4","TLE_LINE1":"1 45588U 20025BK  22156.31198894 -.00000571  00000-0 -19404-4 0  9995","MEAN_MOTION":"15.06396001","DECAY_DATE":null,"TLE_LINE2":"2 45588  53.0553 121.9621 0001636  69.7198 290.3967 15.06396001118503","INCLINATION":"53.0553","REV_AT_EPOCH":"11850","MEAN_MOTION_DDOT":"0.0000000000000","RCS_SIZE":"LARGE","FILE":"3482995","REF_FRAME":"TEME","LAUNCH_DATE":"2020-04-22","PERIOD":"95.592","CLASSIFICATION_TYPE":"U","RA_OF_ASC_NODE":"121.9621","OBJECT_TYPE":"PAYLOAD","OBJECT_NAME":"STARLINK-1360","SITE":"AFETR","TIME_SYSTEM":"UTC","ARG_OF_PERICENTER":"69.7198","COUNTRY_CODE":"US","CENTER_NAME":"EARTH","EPOCH":"2022-06-05T07:29:15.844416","GP_ID":"205443943","APOAPSIS":"548.359","ECCENTRICITY":"0.00016360","ELEMENT_SET_NO":"999"},{"PERIOD":"95.592","REF_FRAME":"TEME","LAUNCH_DATE":"2020-04-22","RCS_SIZE":"LARGE","FILE":"3482995","MEAN_MOTION_DDOT":"0.0000000000000","REV_AT_EPOCH":"11855","TLE_LINE2":"2 45589  53.0544 120.4792 0002327  62.5498 297.5728 15.06395565118552","INCLINATION":"53.0544","DECAY_DATE":null,"MEAN_ELEMENT_THEORY":"SGP4","TLE_LINE1":"1 45589U 20025BL  22156.64004059 -.00000620  00000-0 -22700-4 0  9999","MEAN_MOTION":"15.06395565","OBJECT_ID":"2020-025BL","PERIAPSIS":"545.616","SEMIMAJOR_AXIS":"6925.362","MEAN_ANOMALY":"297.5728","BSTAR":"-0.00002270000000","NORAD_CAT_ID":"45589","MEAN_MOTION_DOT":"-0.00000620","EPHEMERIS_TYPE":"0","ELEMENT_SET_NO":"999","ECCENTRICITY":"0.00023270","APOAPSIS":"548.839","GP_ID":"205444195","EPOCH":"2022-06-05T15:21:39.506976","CENTER_NAME":"EARTH","COUNTRY_CODE":"US","ARG_OF_PERICENTER":"62.5498","TIME_SYSTEM":"UTC","SITE":"AFETR","OBJECT_TYPE":"PAYLOAD","RA_OF_ASC_NODE":"120.4792","OBJECT_NAME":"STARLINK-1364","CLASSIFICATION_TYPE":"U"},{"SEMIMAJOR_AXIS":"6925.363","MEAN_ANOMALY":"312.7534","OBJECT_ID":"2020-025BM","PERIAPSIS":"545.907","NORAD_CAT_ID":"45590","BSTAR":"0.00002791100000","EPHEMERIS_TYPE":"0","MEAN_MOTION_DOT":"0.00000134","FILE":"3482995","RCS_SIZE":"LARGE","MEAN_MOTION_DDOT":"0.0000000000000","REV_AT_EPOCH":"11816","PERIOD":"95.592","LAUNCH_DATE":"2020-04-22","REF_FRAME":"TEME","DECAY_DATE":null,"TLE_LINE1":"1 45590U 20025BM  22156.72205255  .00000134  00000-0  27911-4 0  9998","MEAN_MOTION":"15.06395273","MEAN_ELEMENT_THEORY":"SGP4","INCLINATION":"53.0539","TLE_LINE2":"2 45590  53.0539 150.1200 0001908  47.3615 312.7534 15.06395273118166","ARG_OF_PERICENTER":"47.3615","CENTER_NAME":"EARTH","COUNTRY_CODE":"US","OBJECT_NAME":"STARLINK-1365","RA_OF_ASC_NODE":"150.1200","OBJECT_TYPE":"PAYLOAD","CLASSIFICATION_TYPE":"U","TIME_SYSTEM":"UTC","SITE":"AFETR","ECCENTRICITY":"0.00019080","APOAPSIS":"548.549","GP_ID":"205444446","ELEMENT_SET_NO":"999","EPOCH":"2022-06-05T17:19:45.340320"},{"CLASSIFICATION_TYPE":"U","OBJECT_NAME":"STARLINK-1441","OBJECT_TYPE":"PAYLOAD","RA_OF_ASC_NODE":"110.8151","SITE":"AFETR","TIME_SYSTEM":"UTC","ARG_OF_PERICENTER":"58.1371","COUNTRY_CODE":"US","CENTER_NAME":"EARTH","EPOCH":"2022-06-05T13:31:30.400320","GP_ID":"205444200","APOAPSIS":"548.527","ECCENTRICITY":"0.00019100","ELEMENT_SET_NO":"999","MEAN_MOTION_DOT":"0.00000961","EPHEMERIS_TYPE":"0","NORAD_CAT_ID":"45658","BSTAR":"0.00008341300000","MEAN_ANOMALY":"301.9803","SEMIMAJOR_AXIS":"6925.340","PERIAPSIS":"545.882","OBJECT_ID":"2020-035B","TLE_LINE1":"1 45658U 20035B   22156.56354630  .00000961  00000-0  83413-4 0  9995","MEAN_MOTION":"15.06402889","MEAN_ELEMENT_THEORY":"SGP4","DECAY_DATE":null,"INCLINATION":"53.0548","TLE_LINE2":"2 45658  53.0548 110.8151 0001910  58.1371 301.9803 15.06402889111772","MEAN_MOTION_DDOT":"0.0000000000000","REV_AT_EPOCH":"11177","FILE":"3482995","RCS_SIZE":"LARGE","LAUNCH_DATE":"2020-06-04","REF_FRAME":"TEME","PERIOD":"95.592"},{"CENTER_NAME":"EARTH","COUNTRY_CODE":"US","ARG_OF_PERICENTER":"73.7044","TIME_SYSTEM":"UTC","SITE":"AFETR","RA_OF_ASC_NODE":"109.3305","OBJECT_TYPE":"PAYLOAD","OBJECT_NAME":"STARLINK-1442","CLASSIFICATION_TYPE":"U","ELEMENT_SET_NO":"999","APOAPSIS":"548.556","ECCENTRICITY":"0.00019180","GP_ID":"205444451","EPOCH":"2022-06-05T21:33:09.519840","PERIAPSIS":"545.899","OBJECT_ID":"2020-035C","SEMIMAJOR_AXIS":"6925.362","MEAN_ANOMALY":"286.4156","BSTAR":"0.00005812900000","NORAD_CAT_ID":"45659","EPHEMERIS_TYPE":"0","MEAN_MOTION_DOT":"0.00000584","PERIOD":"95.592","REF_FRAME":"TEME","LAUNCH_DATE":"2020-06-04","RCS_SIZE":"LARGE","FILE":"3482995","MEAN_MOTION_DDOT":"0.0000000000000","REV_AT_EPOCH":"11181","TLE_LINE2":"2 45659  53.0559 109.3305 0001918  73.7044 286.4156 15.06395531111815","INCLINATION":"53.0559","DECAY_DATE":null,"MEAN_ELEMENT_THEORY":"SGP4","TLE_LINE1":"1 45659U 20035C   22156.89802685  .00000584  00000-0  58129-4 0  9997","MEAN_MOTION":"15.06395531"},{"SITE":"AFETR","TIME_SYSTEM":"UTC","CLASSIFICATION_TYPE":"U","RA_OF_ASC_NODE":"110.7752","OBJECT_TYPE":"PAYLOAD","OBJECT_NAME":"STARLINK-1443","COUNTRY_CODE":"US","CENTER_NAME":"EARTH","ARG_OF_PERICENTER":"58.7776","EPOCH":"2022-06-05T13:47:26.602944","ELEMENT_SET_NO":"999","GP_ID":"205443199","ECCENTRICITY":"0.00022760","APOAPSIS":"548.805","EPHEMERIS_TYPE":"0","MEAN_MOTION_DOT":"0.00000703","BSTAR":"0.00006614900000","NORAD_CAT_ID":"45660","PERIAPSIS":"545.652","OBJECT_ID":"2020-035D","MEAN_ANOMALY":"301.3436","SEMIMAJOR_AXIS":"6925.364","TLE_LINE2":"2 45660  53.0547 110.7752 0002276  58.7776 301.3436 15.06395120111776","INCLINATION":"53.0547","MEAN_ELEMENT_THEORY":"SGP4","TLE_LINE1":"1 45660U 20035D   22156.57461346  .00000703  00000-0  66149-4 0  9993","MEAN_MOTION":"15.06395120","DECAY_DATE":null,"REF_FRAME":"TEME","LAUNCH_DATE":"2020-06-04","PERIOD":"95.592","MEAN_MOTION_DDOT":"0.0000000000000","REV_AT_EPOCH":"11177","RCS_SIZE":"LARGE","FILE":"3482995"},{"LAUNCH_DATE":"2020-06-04","REF_FRAME":"TEME","PERIOD":"95.593","MEAN_MOTION_DDOT":"0.0000000000000","REV_AT_EPOCH":"11172","FILE":"3482995","RCS_SIZE":"LARGE","INCLINATION":"53.0555","TLE_LINE2":"2 45661  53.0555 112.1799 0001709  55.7869 304.3282 15.06392706111727","MEAN_MOTION":"15.06392706","TLE_LINE1":"1 45661U 20035E   22156.26130825  .00001274  00000-0  10443-3 0  9994","MEAN_ELEMENT_THEORY":"SGP4","DECAY_DATE":null,"OBJECT_ID":"2020-035E","PERIAPSIS":"546.052","MEAN_ANOMALY":"304.3282","SEMIMAJOR_AXIS":"6925.371","MEAN_MOTION_DOT":"0.00001274","EPHEMERIS_TYPE":"0","NORAD_CAT_ID":"45661","BSTAR":"0.00010443000000","ELEMENT_SET_NO":"999","GP_ID":"205443449","ECCENTRICITY":"0.00017090","APOAPSIS":"548.419","EPOCH":"2022-06-05T06:16:17.032800","COUNTRY_CODE":"US","CENTER_NAME":"EARTH","ARG_OF_PERICENTER":"55.7869","SITE":"AFETR","TIME_SYSTEM":"UTC","CLASSIFICATION_TYPE":"U","OBJECT_NAME":"STARLINK-1444","OBJECT_TYPE":"PAYLOAD","RA_OF_ASC_NODE":"112.1799"}];
